[{"OBJECT_NAME":"EZIE-C","OBJECT_ID":"2025-052AR","EPOCH":"2026-03-09T16:54:14.963904","MEAN_MOTION":14.96297342,"ECCENTRICITY":0.00032112,"INCLINATION":97.6981,"RA_OF_ASC_NODE":322.3863,"ARG_OF_PERICENTER":161.3597,"MEAN_ANOMALY":198.7743,"EPHEMERIS_TYPE":0,"CLASSIFICATION_TYPE":"U","NORAD_CAT_ID":63249,"ELEMENT_SET_NO":999,"REV_AT_EPOCH":5378,"BSTAR":0.0007072062,"MEAN_MOTION_DOT":7.941e-5,"MEAN_MOTION_DDOT":0},{"OBJECT_NAME":"SHIYAN-30 01","OBJECT_ID":"2025-222A","EPOCH":"2026-03-09T22:25:49.198944","MEAN_MOTION":14.93180254,"ECCENTRICITY":0.00055411,"INCLINATION":34.9876,"RA_OF_ASC_NODE":137.1616,"ARG_OF_PERICENTER":247.7523,"MEAN_ANOMALY":112.2594,"EPHEMERIS_TYPE":0,"CLASSIFICATION_TYPE":"U","NORAD_CAT_ID":65851,"ELEMENT_SET_NO":999,"REV_AT_EPOCH":2420,"BSTAR":0.00031890213,"MEAN_MOTION_DOT":3.369e-5,"MEAN_MOTION_DDOT":0}]
